{
    "links": {
        "self": "http://www.neowsapp.com/rest/v1/neo/3551408?api_key=iIulBulltgU6a56xZRHN4H3l9WmuAYTsLGpBGhQ2"
    },
    "id": "3551408",
    "neo_reference_id": "3551408",
    "name": "(2010 VF139)",
    "designation": "2010 VF139",
    "nasa_jpl_url": "http://ssd.jpl.nasa.gov/sbdb.cgi?sstr=3551408",
    "absolute_magnitude_h": 23.8,
    "estimated_diameter": {
        "kilometers": {
            "estimated_diameter_min": 0.046190746,
            "estimated_diameter_max": 0.1032856481
        },
        "meters": {
            "estimated_diameter_min": 46.1907460282,
            "estimated_diameter_max": 103.2856480504
        },
        "miles": {
            "estimated_diameter_min": 0.0287015901,
            "estimated_diameter_max": 0.0641787064
        },
        "feet": {
            "estimated_diameter_min": 151.544447199,
            "estimated_diameter_max": 338.8636855496
        }
    },
    "is_potentially_hazardous_asteroid": false,
    "close_approach_data": [
        {
            "close_approach_date": "2010-10-24",
            "close_approach_date_full": "2010-Oct-24 16:22",
            "epoch_date_close_approach": 1287937320000,
            "relative_velocity": {
                "kilometers_per_second": "4.8034589397",
                "kilometers_per_hour": "17292.4521829623",
                "miles_per_hour": "10744.8573022412"
            },
            "miss_distance": {
                "astronomical": "0.1463183137",
                "lunar": "56.9178240293",
                "kilometers": "21888908.071511819",
                "miles": "13601136.7825443422"
            },
            "orbiting_body": "Earth"
        },
        {
            "close_approach_date": "2116-09-11",
            "close_approach_date_full": "2116-Sep-11 12:44",
            "epoch_date_close_approach": 4629271440000,
            "relative_velocity": {
                "kilometers_per_second": "17.6589365829",
                "kilometers_per_hour": "63572.1716985368",
                "miles_per_hour": "39501.2752423492"
            },
            "miss_distance": {
                "astronomical": "0.4326183305",
                "lunar": "168.2885305645",
                "kilometers": "64718780.765756035",
                "miles": "40214385.602001883"
            },
            "orbiting_body": "Earth"
        }
    ],
    "orbital_data": {
        "orbit_id": "11",
        "orbit_determination_date": "2017-04-06 08:55:44",
        "first_observation_date": "2010-11-13",
        "last_observation_date": "2010-12-09",
        "data_arc_in_days": 26,
        "observations_used": 24,
        "orbit_uncertainty": "8",
        "minimum_orbit_intersection": ".146325",
        "jupiter_tisserand_invariant": "3.241",
        "epoch_osculation": "2455520.5",
        "eccentricity": ".545618532685459",
        "semi_major_axis": "2.502374058649408",
        "inclination": "1.850425982861181",
        "ascending_node_longitude": "280.2877297225473",
        "orbital_period": "1445.861756590675",
        "perihelion_distance": "1.137032396538961",
        "perihelion_argument": "112.8535183438292",
        "aphelion_distance": "3.867715720759854",
        "perihelion_time": "2455496.031862667094",
        "mean_anomaly": "6.092234890157529",
        "mean_motion": ".2489864597075144",
        "equinox": "J2000",
        "orbit_class": {
            "orbit_class_type": "AMO",
            "orbit_class_description": "Near-Earth asteroid orbits similar to that of 1221 Amor",
            "orbit_class_range": "1.017 AU < q (perihelion) < 1.3 AU"
        }
    },
    "is_sentry_object": false
}